QIANFAN-49              
1 62250U 24232P   25211.81988559  .00000040  00000+0  43310-4 0  9990
2 62250  88.9933  54.8759 0012787 219.2900 140.7324 13.50961053 49628
QIANFAN-50              
1 62251U 24232Q   25211.84476946  .00000036  00000+0  37659-4 0  9990
2 62251  88.9938  54.8741 0014408 221.3937 138.6123 13.50954078 49656
QIANFAN-51              
1 62252U 24232R   25211.60608749  .00000025  00000+0  20369-4 0  9991
2 62252  88.9932  54.9007 0011796 225.2826 134.7365 13.50958095 49618
QIANFAN-52              
1 62253U 24232S   25211.56080961  .00000038  00000+0  39771-4 0  9998
2 62253  88.9928  54.7840 0013984 217.6691 142.3482 13.50959228 49695
QIANFAN-53              
1 62254U 24232T   25211.61432347  .00000020  00000+0  12067-4 0  9994
2 62254  88.9936  54.8729 0012841 218.2328 141.7913 13.50952923 49661
QIANFAN-54              
1 62255U 24232U   25211.58131374  .00000021  00000+0  14422-4 0  9995
2 62255  88.9926  54.5665 0000116 257.8683 102.2456 13.50951835 81168
QIANFAN-55              
1 62785U 25016A   25211.53333213  .00000138  00000+0  19549-3 0  9998
2 62785  88.9852 117.1534 0018819  24.8952 335.3103 13.50962646 28931
QIANFAN-56              
1 62786U 25016B   25211.84603777  .00000139  00000+0  19636-3 0  9996
2 62786  88.9824 116.9946 0017517  26.6895 333.5154 13.50954664 29023
